{
  "type": "FeatureCollection",
  "features": [
    {
      "type": "Feature",
      "properties": {
        "norad_id": 44873,
        "name": "CSG-1",
        "group": "resource",
        "lat": -66.11559993658294,
        "lon": -175.9311435787248,
        "alt_km": 630.6532124798478,
        "timestamp": "2025-12-10T11:33:53.049147+00:00",
        "meta_object_name": "CSG-1",
        "meta_object_id": "2019-092A",
        "meta_epoch": "2025-12-10T03:46:01.612704",
        "meta_mean_motion": 14.82158357,
        "meta_eccentricity": 0.0001451,
        "meta_inclination": 97.8811,
        "meta_ra_of_asc_node": 165.52,
        "meta_arg_of_pericenter": 85.2022,
        "meta_mean_anomaly": 274.9356,
        "meta_ephemeris_type": 0,
        "meta_classification_type": "U",
        "meta_norad_cat_id": 44873,
        "meta_element_set_no": 999,
        "meta_rev_at_epoch": 32347,
        "meta_bstar": 0.00013069,
        "meta_mean_motion_dot": 9.88e-06,
        "meta_mean_motion_ddot": 0,
        "tle_line1": "1 44873U 19092A   25344.15696311  .00000988  00000+0  13069-3 0  9993",
        "tle_line2": "2 44873  97.8811 165.5200 0001451  85.2022 274.9356 14.82158357323470"
      },
      "geometry": {
        "type": "Point",
        "coordinates": [
          -175.9311435787248,
          -66.11559993658294
        ]
      }
    },
    {
      "type": "Feature",
      "properties": {
        "norad_id": 46277,
        "name": "NEMO-HD",
        "group": "resource",
        "lat": -20.196979181093678,
        "lon": 46.28164787321991,
        "alt_km": 450.4144553106271,
        "timestamp": "2025-12-10T11:33:53.049157+00:00",
        "meta_object_name": "NEMO-HD",
        "meta_object_id": "2020-061F",
        "meta_epoch": "2025-12-10T03:51:24.786720",
        "meta_mean_motion": 15.40240297,
        "meta_eccentricity": 0.0002043,
        "meta_inclination": 97.221,
        "meta_ra_of_asc_node": 43.2912,
        "meta_arg_of_pericenter": 59.387,
        "meta_mean_anomaly": 300.7578,
        "meta_ephemeris_type": 0,
        "meta_classification_type": "U",
        "meta_norad_cat_id": 46277,
        "meta_element_set_no": 999,
        "meta_rev_at_epoch": 29284,
        "meta_bstar": 0.00036153,
        "meta_mean_motion_dot": 0.00014467,
        "meta_mean_motion_ddot": 0,
        "tle_line1": "1 46277U 20061F   25344.16070355  .00014467  00000+0  36153-3 0  9992",
        "tle_line2": "2 46277  97.2210  43.2912 0002043  59.3870 300.7578 15.40240297292840"
      },
      "geometry": {
        "type": "Point",
        "coordinates": [
          46.28164787321991,
          -20.196979181093678
        ]
      }
    },
    {
      "type": "Feature",
      "properties": {
        "norad_id": 46984,
        "name": "SENTINEL-6A",
        "group": "resource",
        "lat": 45.81226257561934,
        "lon": -40.22438940119822,
        "alt_km": 1337.427139891046,
        "timestamp": "2025-12-10T11:33:53.049168+00:00",
        "meta_object_name": "SENTINEL-6A",
        "meta_object_id": "2020-086A",
        "meta_epoch": "2025-12-09T23:39:14.637312",
        "meta_mean_motion": 12.8093052,
        "meta_eccentricity": 0.000773,
        "meta_inclination": 66.0391,
        "meta_ra_of_asc_node": 168.0287,
        "meta_arg_of_pericenter": 269.1798,
        "meta_mean_anomaly": 90.8331,
        "meta_ephemeris_type": 0,
        "meta_classification_type": "U",
        "meta_norad_cat_id": 46984,
        "meta_element_set_no": 999,
        "meta_rev_at_epoch": 23609,
        "meta_bstar": 6.6173e-05,
        "meta_mean_motion_dot": -4.6e-07,
        "meta_mean_motion_ddot": 0,
        "tle_line1": "1 46984U 20086A   25343.98558608 -.00000046  00000+0  66173-4 0  9990",
        "tle_line2": "2 46984  66.0391 168.0287 0007730 269.1798  90.8331 12.80930520236093"
      },
      "geometry": {
        "type": "Point",
        "coordinates": [
          -40.22438940119822,
          45.81226257561934
        ]
      }
    },
    {
      "type": "Feature",
      "properties": {
        "norad_id": 48079,
        "name": "GAOFEN-12 02",
        "group": "resource",
        "lat": -24.986144339138054,
        "lon": 154.748552224787,
        "alt_km": 633.2533228126022,
        "timestamp": "2025-12-10T11:33:53.049178+00:00",
        "meta_object_name": "GAOFEN-12 02",
        "meta_object_id": "2021-026A",
        "meta_epoch": "2025-12-10T04:09:14.284800",
        "meta_mean_motion": 14.80670011,
        "meta_eccentricity": 0.0003481,
        "meta_inclination": 97.9851,
        "meta_ra_of_asc_node": 338.1919,
        "meta_arg_of_pericenter": 106.0972,
        "meta_mean_anomaly": 254.0623,
        "meta_ephemeris_type": 0,
        "meta_classification_type": "U",
        "meta_norad_cat_id": 48079,
        "meta_element_set_no": 999,
        "meta_rev_at_epoch": 25379,
        "meta_bstar": 0.0001147,
        "meta_mean_motion_dot": 8.29e-06,
        "meta_mean_motion_ddot": 0,
        "tle_line1": "1 48079U 21026A   25344.17308200  .00000829  00000+0  11470-3 0  9992",
        "tle_line2": "2 48079  97.9851 338.1919 0003481 106.0972 254.0623 14.80670011253790"
      },
      "geometry": {
        "type": "Point",
        "coordinates": [
          154.748552224787,
          -24.986144339138054
        ]
      }
    },
    {
      "type": "Feature",
      "properties": {
        "norad_id": 48268,
        "name": "PLEIADES NEO 3",
        "group": "resource",
        "lat": -80.09363321331193,
        "lon": -175.66044758342323,
        "alt_km": 632.3083186128297,
        "timestamp": "2025-12-10T11:33:53.049191+00:00",
        "meta_object_name": "PLEIADES NEO 3",
        "meta_object_id": "2021-034A",
        "meta_epoch": "2025-12-08T17:51:26.688096",
        "meta_mean_motion": 14.81674889,
        "meta_eccentricity": 0.00013213,
        "meta_inclination": 97.8951,
        "meta_ra_of_asc_node": 55.2426,
        "meta_arg_of_pericenter": 96.866,
        "meta_mean_anomaly": 263.2703,
        "meta_ephemeris_type": 0,
        "meta_classification_type": "U",
        "meta_norad_cat_id": 48268,
        "meta_element_set_no": 999,
        "meta_rev_at_epoch": 24945,
        "meta_bstar": 2.6372942e-05,
        "meta_mean_motion_dot": 1.55e-06,
        "meta_mean_motion_ddot": 0,
        "tle_line1": "1 48268U 21034A   25342.74405889  .00000155  00000+0  26373-4 0  9994",
        "tle_line2": "2 48268  97.8951  55.2426 0001321  96.8660 263.2703 14.81674889249458"
      },
      "geometry": {
        "type": "Point",
        "coordinates": [
          -175.66044758342323,
          -80.09363321331193
        ]
      }
    },
    {
      "type": "Feature",
      "properties": {
        "norad_id": 49070,
        "name": "PLEIADES NEO 4",
        "group": "resource",
        "lat": 80.13144279046331,
        "lon": 4.045053917668275,
        "alt_km": 615.6751463214741,
        "timestamp": "2025-12-10T11:33:53.049201+00:00",
        "meta_object_name": "PLEIADES NEO 4",
        "meta_object_id": "2021-073E",
        "meta_epoch": "2025-12-09T14:07:00.443712",
        "meta_mean_motion": 14.81679595,
        "meta_eccentricity": 0.0001363,
        "meta_inclination": 97.8947,
        "meta_ra_of_asc_node": 56.0703,
        "meta_arg_of_pericenter": 89.0853,
        "meta_mean_anomaly": 271.0516,
        "meta_ephemeris_type": 0,
        "meta_classification_type": "U",
        "meta_norad_cat_id": 49070,
        "meta_element_set_no": 999,
        "meta_rev_at_epoch": 23329,
        "meta_bstar": 7.8728e-05,
        "meta_mean_motion_dot": 5.68e-06,
        "meta_mean_motion_ddot": 0,
        "tle_line1": "1 49070U 21073E   25343.58819958  .00000568  00000+0  78728-4 0  9997",
        "tle_line2": "2 49070  97.8947  56.0703 0001363  89.0853 271.0516 14.81679595233299"
      },
      "geometry": {
        "type": "Point",
        "coordinates": [
          4.045053917668275,
          80.13144279046331
        ]
      }
    },
    {
      "type": "Feature",
      "properties": {
        "norad_id": 49260,
        "name": "LANDSAT 9",
        "group": "resource",
        "lat": -58.95797930586617,
        "lon": 66.50475505814669,
        "alt_km": 710.2887470328096,
        "timestamp": "2025-12-10T11:33:53.049211+00:00",
        "meta_object_name": "LANDSAT 9",
        "meta_object_id": "2021-088A",
        "meta_epoch": "2025-12-10T03:35:57.280128",
        "meta_mean_motion": 14.57125887,
        "meta_eccentricity": 0.0001113,
        "meta_inclination": 98.2097,
        "meta_ra_of_asc_node": 52.2986,
        "meta_arg_of_pericenter": 94.8319,
        "meta_mean_anomaly": 265.3006,
        "meta_ephemeris_type": 0,
        "meta_classification_type": "U",
        "meta_norad_cat_id": 49260,
        "meta_element_set_no": 999,
        "meta_rev_at_epoch": 22347,
        "meta_bstar": 0.00015938,
        "meta_mean_motion_dot": 6.73e-06,
        "meta_mean_motion_ddot": 0,
        "tle_line1": "1 49260U 21088A   25344.14996852  .00000673  00000+0  15938-3 0  9996",
        "tle_line2": "2 49260  98.2097  52.2986 0001113  94.8319 265.3006 14.57125887223478"
      },
      "geometry": {
        "type": "Point",
        "coordinates": [
          66.50475505814669,
          -58.95797930586617
        ]
      }
    }
  ]
}